{"type": "FeatureCollection", "features": [ {"type": "Feature", "properties": {"norad_id": 32155, "name": "FENGYUN 1C DEB", "group": "fengyun-1c-debris", "lat": -55.52847802388958, "lon": 79.42612753080697, "alt_km": 740.8000584175516, "timestamp": "2025-12-09T04:51:47.778670+00:00", "meta": {"OBJECT_NAME": "FENGYUN 1C DEB", "OBJECT_ID": "1999-025CSZ", "EPOCH": "2025-12-04T13:09:10.027872", "MEAN_MOTION": 14.32912866, "ECCENTRICITY": 0.0069286, "INCLINATION": 98.9526, "RA_OF_ASC_NODE": 267.8922, "ARG_OF_PERICENTER": 264.2615, "MEAN_ANOMALY": 95.0665, "EPHEMERIS_TYPE": 0, "CLASSIFICATION_TYPE": "U", "NORAD_CAT_ID": 32155, "ELEMENT_SET_NO": 999, "REV_AT_EPOCH": 70105, "BSTAR": 0.001161, "MEAN_MOTION_DOT": 3.211e-05, "MEAN_MOTION_DDOT": 0}, "tle": {"line1": "1 32155U 99025CSZ 25338.54803273  .00003211  00000+0  11610-2 0  9991", "line2": "2 32155  98.9526 267.8922 0069286 264.2615  95.0665 14.32912866701056"}}, "geometry": {"type": "Point", "coordinates": [79.42612753080697, -55.52847802388958]}}, {"type": "Feature", "properties": {"norad_id": 32156, "name": "FENGYUN 1C DEB", "group": "fengyun-1c-debris", "lat": -73.72832607397993, "lon": -61.883356149305214, "alt_km": 850.7336693529478, "timestamp": "2025-12-09T04:51:47.778680+00:00", "meta": {"OBJECT_NAME": "FENGYUN 1C DEB", "OBJECT_ID": "1999-025CTA", "EPOCH": "2025-12-08T07:32:53.302848", "MEAN_MOTION": 14.31940306, "ECCENTRICITY": 0.00822984, "INCLINATION": 99.3543, "RA_OF_ASC_NODE": 151.5435, "ARG_OF_PERICENTER": 70.1457, "MEAN_ANOMALY": 290.8571, "EPHEMERIS_TYPE": 0, "CLASSIFICATION_TYPE": "U", "NORAD_CAT_ID": 32156, "ELEMENT_SET_NO": 999, "REV_AT_EPOCH": 64757, "BSTAR": 0.00055080587, "MEAN_MOTION_DOT": 1.483e-05, "MEAN_MOTION_DDOT": 0}, "tle": {"line1": "1 32156U 99025CTA 25342.31450582  .00001483  00000+0  55081-3 0  9993", "line2": "2 32156  99.3543 151.5435 0082298  70.1457 290.8571 14.31940306647571"}}, "geometry": {"type": "Point", "coordinates": [-61.883356149305214, -73.72832607397993]}}, {"type": "Feature", "properties": {"norad_id": 32160, "name": "FENGYUN 1C DEB", "group": "fengyun-1c-debris", "lat": -8.690066441511949, "lon": 141.6228322453076, "alt_km": 714.665118068674, "timestamp": "2025-12-09T04:51:47.778690+00:00", "meta": {"OBJECT_NAME": "FENGYUN 1C DEB", "OBJECT_ID": "1999-025CTE", "EPOCH": "2025-12-08T17:12:37.312128", "MEAN_MOTION": 14.37552839, "ECCENTRICITY": 0.0082224, "INCLINATION": 98.881, "RA_OF_ASC_NODE": 139.7521, "ARG_OF_PERICENTER": 10.7927, "MEAN_ANOMALY": 349.4999, "EPHEMERIS_TYPE": 0, "CLASSIFICATION_TYPE": "U", "NORAD_CAT_ID": 32160, "ELEMENT_SET_NO": 999, "REV_AT_EPOCH": 95829, "BSTAR": 0.00079976, "MEAN_MOTION_DOT": 2.445e-05, "MEAN_MOTION_DDOT": 0}, "tle": {"line1": "1 32160U 99025CTE 25342.71709852  .00002445  00000+0  79976-3 0  9997", "line2": "2 32160  98.8810 139.7521 0082224  10.7927 349.4999 14.37552839958297"}}, "geometry": {"type": "Point", "coordinates": [141.6228322453076, -8.690066441511949]}}, {"type": "Feature", "properties": {"norad_id": 32161, "name": "FENGYUN 1C DEB", "group": "fengyun-1c-debris", "lat": -61.74137891700893, "lon": -108.8619288980745, "alt_km": 826.5677585555622, "timestamp": "2025-12-09T04:51:47.778700+00:00", "meta": {"OBJECT_NAME": "FENGYUN 1C DEB", "OBJECT_ID": "1999-025CTF", "EPOCH": "2025-12-08T12:16:43.883328", "MEAN_MOTION": 14.01862269, "ECCENTRICITY": 0.01354176, "INCLINATION": 98.8305, "RA_OF_ASC_NODE": 87.2791, "ARG_OF_PERICENTER": 291.8401, "MEAN_ANOMALY": 66.8408, "EPHEMERIS_TYPE": 0, "CLASSIFICATION_TYPE": "U", "NORAD_CAT_ID": 32161, "ELEMENT_SET_NO": 999, "REV_AT_EPOCH": 63370, "BSTAR": 0.00067399448, "MEAN_MOTION_DOT": 1.067e-05, "MEAN_MOTION_DDOT": 0}, "tle": {"line1": "1 32161U 99025CTF 25342.51161902  .00001067  00000+0  67399-3 0  9999", "line2": "2 32161  98.8305  87.2791 0135417 291.8401  66.8408 14.01862269633708"}}, "geometry": {"type": "Point", "coordinates": [-108.8619288980745, -61.74137891700893]}}, {"type": "Feature", "properties": {"norad_id": 32162, "name": "FENGYUN 1C DEB", "group": "fengyun-1c-debris", "lat": -36.31047550698875, "lon": -159.20109469720344, "alt_km": 665.5084235186978, "timestamp": "2025-12-09T04:51:47.778710+00:00", "meta": {"OBJECT_NAME": "FENGYUN 1C DEB", "OBJECT_ID": "1999-025CTG", "EPOCH": "2025-12-06T21:40:12.381312", "MEAN_MOTION": 14.6191306, "ECCENTRICITY": 0.00478583, "INCLINATION": 99.464, "RA_OF_ASC_NODE": 25.2099, "ARG_OF_PERICENTER": 188.3151, "MEAN_ANOMALY": 171.7259, "EPHEMERIS_TYPE": 0, "CLASSIFICATION_TYPE": "U", "NORAD_CAT_ID": 32162, "ELEMENT_SET_NO": 999, "REV_AT_EPOCH": 94833, "BSTAR": 0.0022640129, "MEAN_MOTION_DOT": 0.00011472, "MEAN_MOTION_DDOT": 0}, "tle": {"line1": "1 32162U 99025CTG 25340.90292108  .00011472  00000+0  22640-2 0  9994", "line2": "2 32162  99.4640  25.2099 0047858 188.3151 171.7259 14.61913060948334"}}, "geometry": {"type": "Point", "coordinates": [-159.20109469720344, -36.31047550698875]}}, {"type": "Feature", "properties": {"norad_id": 32163, "name": "FENGYUN 1C DEB", "group": "fengyun-1c-debris", "lat": -58.407442681360436, "lon": 4.4923940710500165, "alt_km": 764.4108374090802, "timestamp": "2025-12-09T04:51:47.778720+00:00", "meta": {"OBJECT_NAME": "FENGYUN 1C DEB", "OBJECT_ID": "1999-025CTH", "EPOCH": "2025-12-07T06:32:45.701088", "MEAN_MOTION": 14.43072737, "ECCENTRICITY": 0.00518635, "INCLINATION": 99.5458, "RA_OF_ASC_NODE": 346.4539, "ARG_OF_PERICENTER": 50.4255, "MEAN_ANOMALY": 310.1496, "EPHEMERIS_TYPE": 0, "CLASSIFICATION_TYPE": "U", "NORAD_CAT_ID": 32163, "ELEMENT_SET_NO": 999, "REV_AT_EPOCH": 60897, "BSTAR": 0.0016245294, "MEAN_MOTION_DOT": 5.487e-05, "MEAN_MOTION_DDOT": 0}, "tle": {"line1": "1 32163U 99025CTH 25341.27275117  .00005487  00000+0  16245-2 0  9990", "line2": "2 32163  99.5458 346.4539 0051863  50.4255 310.1496 14.43072737608977"}}, "geometry": {"type": "Point", "coordinates": [4.4923940710500165, -58.407442681360436]}}, {"type": "Feature", "properties": {"norad_id": 32167, "name": "FENGYUN 1C DEB", "group": "fengyun-1c-debris", "lat": 61.79049045485529, "lon": 173.94026215656416, "alt_km": 703.6453605509696, "timestamp": "2025-12-09T04:51:47.778730+00:00", "meta": {"OBJECT_NAME": "FENGYUN 1C DEB", "OBJECT_ID": "1999-025CTM", "EPOCH": "2025-12-07T05:20:43.611072", "MEAN_MOTION": 14.30962446, "ECCENTRICITY": 0.01652532, "INCLINATION": 98.4715, "RA_OF_ASC_NODE": 335.8779, "ARG_OF_PERICENTER": 73.8008, "MEAN_ANOMALY": 288.1289, "EPHEMERIS_TYPE": 0, "CLASSIFICATION_TYPE": "U", "NORAD_CAT_ID": 32167, "ELEMENT_SET_NO": 999, "REV_AT_EPOCH": 62596, "BSTAR": 0.00060408608, "MEAN_MOTION_DOT": 1.8e-05, "MEAN_MOTION_DDOT": 0}, "tle": {"line1": "1 32167U 99025CTM 25341.22272698  .00001800  00000+0  60409-3 0  9997", "line2": "2 32167  98.4715 335.8779 0165253  73.8008 288.1289 14.30962446625960"}}, "geometry": {"type": "Point", "coordinates": [173.94026215656416, 61.79049045485529]}}, {"type": "Feature", "properties": {"norad_id": 32168, "name": "FENGYUN 1C DEB", "group": "fengyun-1c-debris", "lat": -34.46638404863346, "lon": -136.74583576499904, "alt_km": 795.4589977459391, "timestamp": "2025-12-09T04:51:47.778740+00:00", "meta": {"OBJECT_NAME": "FENGYUN 1C DEB", "OBJECT_ID": "1999-025CTN", "EPOCH": "2025-12-08T10:29:06.866592", "MEAN_MOTION": 13.86067087, "ECCENTRICITY": 0.02429494, "INCLINATION": 101.6556, "RA_OF_ASC_NODE": 50.448, "ARG_OF_PERICENTER": 248.4673, "MEAN_ANOMALY": 109.042, "EPHEMERIS_TYPE": 0, "CLASSIFICATION_TYPE": "U", "NORAD_CAT_ID": 32168, "ELEMENT_SET_NO": 999, "REV_AT_EPOCH": 63420, "BSTAR": 0.0056171712, "MEAN_MOTION_DOT": 8.1e-05, "MEAN_MOTION_DDOT": 0}, "tle": {"line1": "1 32168U 99025CTN 25342.43688503  .00008100  00000+0  56172-2 0  9999", "line2": "2 32168 101.6556  50.4480 0242949 248.4673 109.0420 13.86067087634208"}}, "geometry": {"type": "Point", "coordinates": [-136.74583576499904, -34.46638404863346]}}, {"type": "Feature", "properties": {"norad_id": 32169, "name": "FENGYUN 1C DEB", "group": "fengyun-1c-debris", "lat": -9.932914866558386, "lon": -9.799078506525204, "alt_km": 660.8071558022639, "timestamp": "2025-12-09T04:51:47.778751+00:00", "meta": {"OBJECT_NAME": "FENGYUN 1C DEB", "OBJECT_ID": "1999-025CTP", "EPOCH": "2025-12-08T11:38:18.754656", "MEAN_MOTION": 14.67418642, "ECCENTRICITY": 0.0033613, "INCLINATION": 98.5578, "RA_OF_ASC_NODE": 170.9627, "ARG_OF_PERICENTER": 133.9912, "MEAN_ANOMALY": 226.4071, "EPHEMERIS_TYPE": 0, "CLASSIFICATION_TYPE": "U", "NORAD_CAT_ID": 32169, "ELEMENT_SET_NO": 999, "REV_AT_EPOCH": 96556, "BSTAR": 0.0055807995, "MEAN_MOTION_DOT": 0.00031924, "MEAN_MOTION_DDOT": 0}, "tle": {"line1": "1 32169U 99025CTP 25342.48493929  .00031924  00000+0  55808-2 0  9996", "line2": "2 32169  98.5578 170.9627 0033613 133.9912 226.4071 14.67418642965567"}}, "geometry": {"type": "Point", "coordinates": [-9.799078506525204, -9.932914866558386]}}, {"type": "Feature", "properties": {"norad_id": 32171, "name": "FENGYUN 1C DEB", "group": "fengyun-1c-debris", "lat": 62.599754758833015, "lon": 85.27132989645567, "alt_km": 1145.0704952125543, "timestamp": "2025-12-09T04:51:47.778761+00:00", "meta": {"OBJECT_NAME": "FENGYUN 1C DEB", "OBJECT_ID": "1999-025CTR", "EPOCH": "2025-12-03T23:12:12.508416", "MEAN_MOTION": 13.4243602, "ECCENTRICITY": 0.04879299, "INCLINATION": 102.8037, "RA_OF_ASC_NODE": 232.6035, "ARG_OF_PERICENTER": 24.8358, "MEAN_ANOMALY": 350.9132, "EPHEMERIS_TYPE": 0, "CLASSIFICATION_TYPE": "U", "NORAD_CAT_ID": 32171, "ELEMENT_SET_NO": 999, "REV_AT_EPOCH": 60498, "BSTAR": 0.0080316463, "MEAN_MOTION_DOT": 9.177e-05, "MEAN_MOTION_DDOT": 0}, "tle": {"line1": "1 32171U 99025CTR 25337.96681144  .00009177  00000+0  80316-2 0  9991", "line2": "2 32171 102.8037 232.6035 0487929  24.8358 350.9132 13.42436020604982"}}, "geometry": {"type": "Point", "coordinates": [85.27132989645567, 62.599754758833015]}}]}